KUIPER-00096            
1 65135U 25171D   26194.55304431  .00001716  00000+0  25408-3 0  9999
2 65135  51.9023 321.5064 0000380 119.9120 240.1880 14.79929150 51531
KUIPER-00097            
1 65136U 25171E   26194.55036638  .00000314  00000+0  70215-4 0  9991
2 65136  51.9032 324.1746 0000434 104.3998 255.7012 14.79931837 51487
KUIPER-00098            
1 65137U 25171F   26194.61518334  .00001865  00000+0  27354-3 0  9994
2 65137  51.9026 326.2521 0000420 105.7016 254.3993 14.79933350 50817
KUIPER-00099            
1 65138U 25171G   26194.59220486  .00001752  00000+0  25875-3 0  9991
2 65138  51.9046 316.3585 0000542 115.7587 244.3431 14.79933188 51602
KUIPER-00100            
1 65139U 25171H   26194.83124889  .00001731  00000+0  25596-3 0  9996
2 65139  51.9029 312.7715 0000449 103.4459 256.6554 14.79934513 51679
KUIPER-00102            
1 65140U 25171J   26194.76099546 -.00002247  00000+0 -26568-3 0  9996
2 65140  51.9008 315.5751 0000741   6.4115 353.6857 14.79965880 51625
KUIPER-00103            
1 65141U 25171K   26194.64085295  .00001754  00000+0  25901-3 0  9990
2 65141  51.9002 333.5989 0000468 105.6142 254.4872 14.79932806 51369
KUIPER-00104            
1 65142U 25171L   26194.65433904  .00000318  00000+0  70712-4 0  9992
2 65142  51.9039 321.0400 0000477 118.4286 241.6725 14.79933233 51541
KUIPER-00105            
1 65143U 25171M   26194.68002890  .00000075  00000+0  38839-4 0  9996
2 65143  51.9023 328.5273 0000494 110.5033 249.5982 14.79931944 51445
KUIPER-00106            
1 65144U 25171N   26194.52568140 -.00000256  00000+0 -45899-5 0  9993
2 65144  51.9028 307.9719 0000479 104.8102 255.2914 14.79931638 51723
KUIPER-00107            
1 65145U 25171P   26194.63136869  .00000492  00000+0  93492-4 0  9996
2 65145  51.9019 311.1841 0000428 111.5190 248.5818 14.79933599 51684
KUIPER-00108            
1 65146U 25171Q   26194.65165097 -.00000085  00000+0  17788-4 0  9997
2 65146  51.9036 323.6309 0000496  85.0710 275.0309 14.79932889 51512
KUIPER-00109            
1 65147U 25171R   26194.75832714  .00001718  00000+0  25422-3 0  9992
2 65147  51.9036 318.1016 0000566 122.3973 237.7045 14.79941995 51599
KUIPER-00110            
1 65148U 25171S   26194.37344584  .00001609  00000+0  24005-3 0  9999
2 65148  51.9003 332.3616 0000532  85.7092 274.3932 14.79930811 51356
KUIPER-00111            
1 65149U 25171T   26194.60438830  .00000118  00000+0  44465-4 0  9991
2 65149  51.8990 336.2179 0000615 130.2884 229.8132 14.79932208 51321
KUIPER-00112            
1 65150U 25171U   26194.65704773  .00000528  00000+0  98234-4 0  9998
2 65150  51.9036 318.6007 0000330  83.7880 276.3120 14.79935263 51576
